STARLINK-2378           
1 47916U 21021BJ  25151.24265510  .00001031  00000+0  88072-4 0  9995
2 47916  53.0547  89.5731 0001457  89.5352 270.5804 15.06405310233284
STARLINK-2405           
1 47919U 21021BM  25151.57255453 -.00000020  00000+0  17572-4 0  9994
2 47919  53.0543 108.0896 0001378  85.2707 274.8439 15.06396605233031
STARLINK-1647           
1 47978U 21024B   25151.73519744  .00000144  00000+0  28533-4 0  9991
2 47978  53.0532 162.3626 0000964  74.1351 285.9744 15.06394939231544
STARLINK-2303           
1 47981U 21024E   25151.52510591 -.00000093  00000+0  12664-4 0  9995
2 47981  53.0543 163.3024 0001042  91.1609 268.9499 15.06390531232033
STARLINK-2273           
1 47993U 21024S   25151.62093696 -.00000023  00000+0  17352-4 0  9993
2 47993  53.0543 122.8702 0001340  83.3822 276.7319 15.06394049232081
STARLINK-2309           
1 47995U 21024U   25151.91668981  .00185379  00000+0  19058-2 0  9992
2 47995  53.0456  87.3818 0005870 146.2292 112.2980 15.63772962232604
STARLINK-2266           
1 47997U 21024W   25151.67301336  .00001797  00000+0  13953-3 0  9995
2 47997  53.0540 137.6415 0001071  72.6184 287.4922 15.06398934231883
STARLINK-2270           
1 48000U 21024Z   25151.49518942 -.00001447  00000+0 -78290-4 0  9994
2 48000  53.0551  68.6429 0001296  78.4680 281.6454 15.06399139233306
STARLINK-2153           
1 48009U 21024AJ  25151.36845393  .00000084  00000+0  24569-4 0  9996
2 48009  53.0539 144.0057 0001445  93.2740 266.8415 15.06394387232238
STARLINK-2226           
1 48010U 21024AK  25151.31501448 -.00000819  00000+0 -36096-4 0  9999
2 48010  53.0537 164.2436 0001341  86.5057 273.6085 15.06375811231479
STARLINK-2284           
1 48016U 21024AR  25151.91668981  .00518584  12302-3  11911-2 0  9997
2 48016  53.0258  11.4826 0005371 202.9996 248.1895 15.96742365233653
STARLINK-2282           
1 48018U 21024AT  25151.91668981  .00126370  00000+0  24474-2 0  9993
2 48018  53.0282 112.7077 0008781 355.0945   9.3918 15.46773857232250
STARLINK-2285           
1 48019U 21024AU  25151.34494608 -.00001135  00000+0 -57373-4 0  9993
2 48019  53.0542 139.1152 0001177  84.7409 275.3715 15.06387868232293
STARLINK-2301           
1 48021U 21024AW  25151.58334491  .00704687  00000+0  74214-2 0  9996
2 48021  53.0535  92.0729 0001124 113.7397 325.5535 15.61437861  4864
