[
  {
    "OBJECT_NAME": "STARLINK-2378",
    "OBJECT_ID": "2021-021BJ",
    "EPOCH": "2025-05-31T05:49:25.400640",
    "MEAN_MOTION": 15.0640531,
    "ECCENTRICITY": 0.0001457,
    "INCLINATION": 53.0547,
    "RA_OF_ASC_NODE": 89.5731,
    "ARG_OF_PERICENTER": 89.5352,
    "MEAN_ANOMALY": 270.5804,
    "EPHEMERIS_TYPE": 0,
    "CLASSIFICATION_TYPE": "U",
    "NORAD_CAT_ID": 47916,
    "ELEMENT_SET_NO": 999,
    "REV_AT_EPOCH": 23328,
    "BSTAR": 8.8072e-05,
    "MEAN_MOTION_DOT": 1.031e-05,
    "MEAN_MOTION_DDOT": 0
  },
  {
    "OBJECT_NAME": "STARLINK-2405",
    "OBJECT_ID": "2021-021BM",
    "EPOCH": "2025-05-31T13:44:28.711392",
    "MEAN_MOTION": 15.06396605,
    "ECCENTRICITY": 0.0001378,
    "INCLINATION": 53.0543,
    "RA_OF_ASC_NODE": 108.0896,
    "ARG_OF_PERICENTER": 85.2707,
    "MEAN_ANOMALY": 274.8439,
    "EPHEMERIS_TYPE": 0,
    "CLASSIFICATION_TYPE": "U",
    "NORAD_CAT_ID": 47919,
    "ELEMENT_SET_NO": 999,
    "REV_AT_EPOCH": 23303,
    "BSTAR": 1.7572e-05,
    "MEAN_MOTION_DOT": -2e-07,
    "MEAN_MOTION_DDOT": 0
  },
  {
    "OBJECT_NAME": "STARLINK-1647",
    "OBJECT_ID": "2021-024B",
    "EPOCH": "2025-05-31T17:38:41.058816",
    "MEAN_MOTION": 15.06394939,
    "ECCENTRICITY": 9.64e-05,
    "INCLINATION": 53.0532,
    "RA_OF_ASC_NODE": 162.3626,
    "ARG_OF_PERICENTER": 74.1351,
    "MEAN_ANOMALY": 285.9744,
    "EPHEMERIS_TYPE": 0,
    "CLASSIFICATION_TYPE": "U",
    "NORAD_CAT_ID": 47978,
    "ELEMENT_SET_NO": 999,
    "REV_AT_EPOCH": 23154,
    "BSTAR": 2.8533e-05,
    "MEAN_MOTION_DOT": 1.44e-06,
    "MEAN_MOTION_DDOT": 0
  },
  {
    "OBJECT_NAME": "STARLINK-2303",
    "OBJECT_ID": "2021-024E",
    "EPOCH": "2025-05-31T12:36:09.150624",
    "MEAN_MOTION": 15.06390531,
    "ECCENTRICITY": 0.0001042,
    "INCLINATION": 53.0543,
    "RA_OF_ASC_NODE": 163.3024,
    "ARG_OF_PERICENTER": 91.1609,
    "MEAN_ANOMALY": 268.9499,
    "EPHEMERIS_TYPE": 0,
    "CLASSIFICATION_TYPE": "U",
    "NORAD_CAT_ID": 47981,
    "ELEMENT_SET_NO": 999,
    "REV_AT_EPOCH": 23203,
    "BSTAR": 1.2664e-05,
    "MEAN_MOTION_DOT": -9.3e-07,
    "MEAN_MOTION_DDOT": 0
  },
  {
    "OBJECT_NAME": "STARLINK-2273",
    "OBJECT_ID": "2021-024S",
    "EPOCH": "2025-05-31T14:54:08.953344",
    "MEAN_MOTION": 15.06394049,
    "ECCENTRICITY": 0.000134,
    "INCLINATION": 53.0543,
    "RA_OF_ASC_NODE": 122.8702,
    "ARG_OF_PERICENTER": 83.3822,
    "MEAN_ANOMALY": 276.7319,
    "EPHEMERIS_TYPE": 0,
    "CLASSIFICATION_TYPE": "U",
    "NORAD_CAT_ID": 47993,
    "ELEMENT_SET_NO": 999,
    "REV_AT_EPOCH": 23208,
    "BSTAR": 1.7352e-05,
    "MEAN_MOTION_DOT": -2.3e-07,
    "MEAN_MOTION_DDOT": 0
  },
  {
    "OBJECT_NAME": "STARLINK-2309",
    "OBJECT_ID": "2021-024U",
    "EPOCH": "2025-05-31T22:00:01.999584",
    "MEAN_MOTION": 15.63772962,
    "ECCENTRICITY": 0.000587,
    "INCLINATION": 53.0456,
    "RA_OF_ASC_NODE": 87.3818,
    "ARG_OF_PERICENTER": 146.2292,
    "MEAN_ANOMALY": 112.298,
    "EPHEMERIS_TYPE": 0,
    "CLASSIFICATION_TYPE": "U",
    "NORAD_CAT_ID": 47995,
    "ELEMENT_SET_NO": 999,
    "REV_AT_EPOCH": 23260,
    "BSTAR": 0.0019058,
    "MEAN_MOTION_DOT": 0.00185379,
    "MEAN_MOTION_DDOT": 0
  },
  {
    "OBJECT_NAME": "STARLINK-2266",
    "OBJECT_ID": "2021-024W",
    "EPOCH": "2025-05-31T16:09:08.354304",
    "MEAN_MOTION": 15.06398934,
    "ECCENTRICITY": 0.0001071,
    "INCLINATION": 53.054,
    "RA_OF_ASC_NODE": 137.6415,
    "ARG_OF_PERICENTER": 72.6184,
    "MEAN_ANOMALY": 287.4922,
    "EPHEMERIS_TYPE": 0,
    "CLASSIFICATION_TYPE": "U",
    "NORAD_CAT_ID": 47997,
    "ELEMENT_SET_NO": 999,
    "REV_AT_EPOCH": 23188,
    "BSTAR": 0.00013953,
    "MEAN_MOTION_DOT": 1.797e-05,
    "MEAN_MOTION_DDOT": 0
  },
  {
    "OBJECT_NAME": "STARLINK-2270",
    "OBJECT_ID": "2021-024Z",
    "EPOCH": "2025-05-31T11:53:04.365888",
    "MEAN_MOTION": 15.06399139,
    "ECCENTRICITY": 0.0001296,
    "INCLINATION": 53.0551,
    "RA_OF_ASC_NODE": 68.6429,
    "ARG_OF_PERICENTER": 78.468,
    "MEAN_ANOMALY": 281.6454,
    "EPHEMERIS_TYPE": 0,
    "CLASSIFICATION_TYPE": "U",
    "NORAD_CAT_ID": 48000,
    "ELEMENT_SET_NO": 999,
    "REV_AT_EPOCH": 23330,
    "BSTAR": -7.829e-05,
    "MEAN_MOTION_DOT": -1.447e-05,
    "MEAN_MOTION_DDOT": 0
  },
  {
    "OBJECT_NAME": "STARLINK-2153",
    "OBJECT_ID": "2021-024AJ",
    "EPOCH": "2025-05-31T08:50:34.419552",
    "MEAN_MOTION": 15.06394387,
    "ECCENTRICITY": 0.0001445,
    "INCLINATION": 53.0539,
    "RA_OF_ASC_NODE": 144.0057,
    "ARG_OF_PERICENTER": 93.274,
    "MEAN_ANOMALY": 266.8415,
    "EPHEMERIS_TYPE": 0,
    "CLASSIFICATION_TYPE": "U",
    "NORAD_CAT_ID": 48009,
    "ELEMENT_SET_NO": 999,
    "REV_AT_EPOCH": 23223,
    "BSTAR": 2.4569e-05,
    "MEAN_MOTION_DOT": 8.4e-07,
    "MEAN_MOTION_DDOT": 0
  },
  {
    "OBJECT_NAME": "STARLINK-2226",
    "OBJECT_ID": "2021-024AK",
    "EPOCH": "2025-05-31T07:33:37.251072",
    "MEAN_MOTION": 15.06375811,
    "ECCENTRICITY": 0.0001341,
    "INCLINATION": 53.0537,
    "RA_OF_ASC_NODE": 164.2436,
    "ARG_OF_PERICENTER": 86.5057,
    "MEAN_ANOMALY": 273.6085,
    "EPHEMERIS_TYPE": 0,
    "CLASSIFICATION_TYPE": "U",
    "NORAD_CAT_ID": 48010,
    "ELEMENT_SET_NO": 999,
    "REV_AT_EPOCH": 23147,
    "BSTAR": -3.6096e-05,
    "MEAN_MOTION_DOT": -8.19e-06,
    "MEAN_MOTION_DDOT": 0
  },
  {
    "OBJECT_NAME": "STARLINK-2284",
    "OBJECT_ID": "2021-024AR",
    "EPOCH": "2025-05-31T22:00:01.999584",
    "MEAN_MOTION": 15.96742365,
    "ECCENTRICITY": 0.0005371,
    "INCLINATION": 53.0258,
    "RA_OF_ASC_NODE": 11.4826,
    "ARG_OF_PERICENTER": 202.9996,
    "MEAN_ANOMALY": 248.1895,
    "EPHEMERIS_TYPE": 0,
    "CLASSIFICATION_TYPE": "U",
    "NORAD_CAT_ID": 48016,
    "ELEMENT_SET_NO": 999,
    "REV_AT_EPOCH": 23365,
    "BSTAR": 0.0011911,
    "MEAN_MOTION_DOT": 0.00518584,
    "MEAN_MOTION_DDOT": 0.00012302
  },
  {
    "OBJECT_NAME": "STARLINK-2282",
    "OBJECT_ID": "2021-024AT",
    "EPOCH": "2025-05-31T22:00:01.999584",
    "MEAN_MOTION": 15.46773857,
    "ECCENTRICITY": 0.0008781,
    "INCLINATION": 53.0282,
    "RA_OF_ASC_NODE": 112.7077,
    "ARG_OF_PERICENTER": 355.0945,
    "MEAN_ANOMALY": 9.3918,
    "EPHEMERIS_TYPE": 0,
    "CLASSIFICATION_TYPE": "U",
    "NORAD_CAT_ID": 48018,
    "ELEMENT_SET_NO": 999,
    "REV_AT_EPOCH": 23225,
    "BSTAR": 0.0024474,
    "MEAN_MOTION_DOT": 0.0012637,
    "MEAN_MOTION_DDOT": 0
  },
  {
    "OBJECT_NAME": "STARLINK-2285",
    "OBJECT_ID": "2021-024AU",
    "EPOCH": "2025-05-31T08:16:43.341312",
    "MEAN_MOTION": 15.06387868,
    "ECCENTRICITY": 0.0001177,
    "INCLINATION": 53.0542,
    "RA_OF_ASC_NODE": 139.1152,
    "ARG_OF_PERICENTER": 84.7409,
    "MEAN_ANOMALY": 275.3715,
    "EPHEMERIS_TYPE": 0,
    "CLASSIFICATION_TYPE": "U",
    "NORAD_CAT_ID": 48019,
    "ELEMENT_SET_NO": 999,
    "REV_AT_EPOCH": 23229,
    "BSTAR": -5.7373e-05,
    "MEAN_MOTION_DOT": -1.135e-05,
    "MEAN_MOTION_DDOT": 0
  },
  {
    "OBJECT_NAME": "STARLINK-2301",
    "OBJECT_ID": "2021-024AW",
    "EPOCH": "2025-05-31T14:00:01.000224",
    "MEAN_MOTION": 15.61437861,
    "ECCENTRICITY": 0.0001124,
    "INCLINATION": 53.0535,
    "RA_OF_ASC_NODE": 92.0729,
    "ARG_OF_PERICENTER": 113.7397,
    "MEAN_ANOMALY": 325.5535,
    "EPHEMERIS_TYPE": 0,
    "CLASSIFICATION_TYPE": "U",
    "NORAD_CAT_ID": 48021,
    "ELEMENT_SET_NO": 999,
    "REV_AT_EPOCH": 486,
    "BSTAR": 0.0074214,
    "MEAN_MOTION_DOT": 0.00704687,
    "MEAN_MOTION_DDOT": 0
  }
]